{
  "type": "FeatureCollection",
  "features": [
    {
      "type": "Feature",
      "properties": {
        "norad_id": 66527,
        "name": "STARLINK-35935",
        "group": "last-30-days",
        "lat": 19.764585044324388,
        "lon": 98.6434974366893,
        "alt_km": 400.20012430468523,
        "timestamp": "2025-12-08T23:34:02.739596+00:00",
        "meta_object_name": "STARLINK-35935",
        "meta_object_id": "2025-265M",
        "meta_epoch": "2025-12-08T14:00:01.999872",
        "meta_mean_motion": 15.56466863,
        "meta_eccentricity": 0.00012899,
        "meta_inclination": 43.0002,
        "meta_ra_of_asc_node": 78.312,
        "meta_arg_of_pericenter": 276.2132,
        "meta_mean_anomaly": 38.6136,
        "meta_ephemeris_type": 0,
        "meta_classification_type": "U",
        "meta_norad_cat_id": 66527,
        "meta_element_set_no": 999,
        "meta_rev_at_epoch": 432,
        "meta_bstar": -0.032017708,
        "meta_mean_motion_dot": -0.02074186,
        "meta_mean_motion_ddot": 0,
        "tle_line1": "1 66527U 25265M   25342.58335648 -.02074186  00000+0 -32018-1 0  9998",
        "tle_line2": "2 66527  43.0002  78.3120 0001289 276.2132  38.6136 15.56466863  4327"
      },
      "geometry": {
        "type": "Point",
        "coordinates": [
          98.6434974366893,
          19.764585044324388
        ]
      }
    },
    {
      "type": "Feature",
      "properties": {
        "norad_id": 66528,
        "name": "STARLINK-35928",
        "group": "last-30-days",
        "lat": 20.964897798645787,
        "lon": 100.23654731084305,
        "alt_km": 399.9874424555228,
        "timestamp": "2025-12-08T23:34:02.739605+00:00",
        "meta_object_name": "STARLINK-35928",
        "meta_object_id": "2025-265N",
        "meta_epoch": "2025-12-08T14:00:01.999872",
        "meta_mean_motion": 15.56455251,
        "meta_eccentricity": 0.00014106,
        "meta_inclination": 43.0004,
        "meta_ra_of_asc_node": 78.3072,
        "meta_arg_of_pericenter": 279.4601,
        "meta_mean_anomaly": 37.2863,
        "meta_ephemeris_type": 0,
        "meta_classification_type": "U",
        "meta_norad_cat_id": 66528,
        "meta_element_set_no": 999,
        "meta_rev_at_epoch": 432,
        "meta_bstar": -0.03169008,
        "meta_mean_motion_dot": -0.0205452,
        "meta_mean_motion_ddot": 0,
        "tle_line1": "1 66528U 25265N   25342.58335648 -.02054520  00000+0 -31690-1 0  9994",
        "tle_line2": "2 66528  43.0004  78.3072 0001410 279.4601  37.2863 15.56455251  4329"
      },
      "geometry": {
        "type": "Point",
        "coordinates": [
          100.23654731084305,
          20.964897798645787
        ]
      }
    },
    {
      "type": "Feature",
      "properties": {
        "norad_id": 66529,
        "name": "STARLINK-35933",
        "group": "last-30-days",
        "lat": 22.14860629391791,
        "lon": 101.85348635633814,
        "alt_km": 399.80444239781264,
        "timestamp": "2025-12-08T23:34:02.739616+00:00",
        "meta_object_name": "STARLINK-35933",
        "meta_object_id": "2025-265P",
        "meta_epoch": "2025-12-08T14:00:01.999872",
        "meta_mean_motion": 15.56455021,
        "meta_eccentricity": 0.00013377,
        "meta_inclination": 43.0002,
        "meta_ra_of_asc_node": 78.3023,
        "meta_arg_of_pericenter": 279.9237,
        "meta_mean_anomaly": 38.7395,
        "meta_ephemeris_type": 0,
        "meta_classification_type": "U",
        "meta_norad_cat_id": 66529,
        "meta_element_set_no": 999,
        "meta_rev_at_epoch": 432,
        "meta_bstar": -0.0316858,
        "meta_mean_motion_dot": -0.0205421,
        "meta_mean_motion_ddot": 0,
        "tle_line1": "1 66529U 25265P   25342.58335648 -.02054210  00000+0 -31686-1 0  9996",
        "tle_line2": "2 66529  43.0002  78.3023 0001337 279.9237  38.7395 15.56455021  4323"
      },
      "geometry": {
        "type": "Point",
        "coordinates": [
          101.85348635633814,
          22.14860629391791
        ]
      }
    },
    {
      "type": "Feature",
      "properties": {
        "norad_id": 66530,
        "name": "STARLINK-35961",
        "group": "last-30-days",
        "lat": 23.318911145691768,
        "lon": 103.50161629963537,
        "alt_km": 399.71906501908234,
        "timestamp": "2025-12-08T23:34:02.739626+00:00",
        "meta_object_name": "STARLINK-35961",
        "meta_object_id": "2025-265Q",
        "meta_epoch": "2025-12-08T14:00:01.999872",
        "meta_mean_motion": 15.56459399,
        "meta_eccentricity": 0.00015425,
        "meta_inclination": 43.0005,
        "meta_ra_of_asc_node": 78.2976,
        "meta_arg_of_pericenter": 280.0985,
        "meta_mean_anomaly": 40.482,
        "meta_ephemeris_type": 0,
        "meta_classification_type": "U",
        "meta_norad_cat_id": 66530,
        "meta_element_set_no": 999,
        "meta_rev_at_epoch": 432,
        "meta_bstar": -0.031819958,
        "meta_mean_motion_dot": -0.02062405,
        "meta_mean_motion_ddot": 0,
        "tle_line1": "1 66530U 25265Q   25342.58335648 -.02062405  00000+0 -31820-1 0  9993",
        "tle_line2": "2 66530  43.0005  78.2976 0001542 280.0985  40.4820 15.56459399  4320"
      },
      "geometry": {
        "type": "Point",
        "coordinates": [
          103.50161629963537,
          23.318911145691768
        ]
      }
    },
    {
      "type": "Feature",
      "properties": {
        "norad_id": 66531,
        "name": "STARLINK-35960",
        "group": "last-30-days",
        "lat": 24.468592210550987,
        "lon": 105.17497773381328,
        "alt_km": 399.51244952561865,
        "timestamp": "2025-12-08T23:34:02.739638+00:00",
        "meta_object_name": "STARLINK-35960",
        "meta_object_id": "2025-265R",
        "meta_epoch": "2025-12-08T14:00:01.999872",
        "meta_mean_motion": 15.56454655,
        "meta_eccentricity": 0.00015133,
        "meta_inclination": 43.0002,
        "meta_ra_of_asc_node": 78.2928,
        "meta_arg_of_pericenter": 281.997,
        "meta_mean_anomaly": 40.5007,
        "meta_ephemeris_type": 0,
        "meta_classification_type": "U",
        "meta_norad_cat_id": 66531,
        "meta_element_set_no": 999,
        "meta_rev_at_epoch": 432,
        "meta_bstar": -0.031690961,
        "meta_mean_motion_dot": -0.02054596,
        "meta_mean_motion_ddot": 0,
        "tle_line1": "1 66531U 25265R   25342.58335648 -.02054596  00000+0 -31691-1 0  9992",
        "tle_line2": "2 66531  43.0002  78.2928 0001513 281.9970  40.5007 15.56454655  4325"
      },
      "geometry": {
        "type": "Point",
        "coordinates": [
          105.17497773381328,
          24.468592210550987
        ]
      }
    },
    {
      "type": "Feature",
      "properties": {
        "norad_id": 66532,
        "name": "STARLINK-35914",
        "group": "last-30-days",
        "lat": 25.599126226004515,
        "lon": 106.87862155508222,
        "alt_km": 399.33838794494386,
        "timestamp": "2025-12-08T23:34:02.739649+00:00",
        "meta_object_name": "STARLINK-35914",
        "meta_object_id": "2025-265S",
        "meta_epoch": "2025-12-08T14:00:01.999872",
        "meta_mean_motion": 15.56457845,
        "meta_eccentricity": 0.00013449,
        "meta_inclination": 42.9998,
        "meta_ra_of_asc_node": 78.2879,
        "meta_arg_of_pericenter": 280.7823,
        "meta_mean_anomaly": 43.6297,
        "meta_ephemeris_type": 0,
        "meta_classification_type": "U",
        "meta_norad_cat_id": 66532,
        "meta_element_set_no": 999,
        "meta_rev_at_epoch": 432,
        "meta_bstar": -0.031730245,
        "meta_mean_motion_dot": -0.02056981,
        "meta_mean_motion_ddot": 0,
        "tle_line1": "1 66532U 25265S   25342.58335648 -.02056981  00000+0 -31730-1 0  9997",
        "tle_line2": "2 66532  42.9998  78.2879 0001344 280.7823  43.6297 15.56457845  4328"
      },
      "geometry": {
        "type": "Point",
        "coordinates": [
          106.87862155508222,
          25.599126226004515
        ]
      }
    },
    {
      "type": "Feature",
      "properties": {
        "norad_id": 66533,
        "name": "STARLINK-35707",
        "group": "last-30-days",
        "lat": 26.712120163414895,
        "lon": 108.61862674577065,
        "alt_km": 399.283035680216,
        "timestamp": "2025-12-08T23:34:02.739659+00:00",
        "meta_object_name": "STARLINK-35707",
        "meta_object_id": "2025-265T",
        "meta_epoch": "2025-12-08T14:00:01.999872",
        "meta_mean_motion": 15.56460384,
        "meta_eccentricity": 0.00015139,
        "meta_inclination": 42.9998,
        "meta_ra_of_asc_node": 78.2832,
        "meta_arg_of_pericenter": 279.8345,
        "meta_mean_anomaly": 46.4956,
        "meta_ephemeris_type": 0,
        "meta_classification_type": "U",
        "meta_norad_cat_id": 66533,
        "meta_element_set_no": 999,
        "meta_rev_at_epoch": 432,
        "meta_bstar": -0.031821945,
        "meta_mean_motion_dot": -0.02062571,
        "meta_mean_motion_ddot": 0,
        "tle_line1": "1 66533U 25265T   25342.58335648 -.02062571  00000+0 -31822-1 0  9992",
        "tle_line2": "2 66533  42.9998  78.2832 0001513 279.8345  46.4956 15.56460384  4329"
      },
      "geometry": {
        "type": "Point",
        "coordinates": [
          108.61862674577065,
          26.712120163414895
        ]
      }
    }
  ]
}